satname,norad_id,inclination_deg,eccentricity,mean_motion_rev_per_day,perigee_km,apogee_km,l1,l2
STARLINK-1543,46053,53.1598,0.0001539,15.3171474,469.6420209976377,471.75009181239875,1 46053U 20055AC  26132.40610264  .00001036  00000+0  45128-4 0  9990,2 46053  53.1598 177.7282 0001539  69.1118 291.0048 15.31714740318839
STARLINK-1548,46054,53.1581,0.0001244,15.31709488,469.85971535757017,471.5637089171505,1 46054U 20055AD  26132.81160384  .00001371  00000+0  55927-4 0  9999,2 46054  53.1581 175.9145 0001244  88.2094 271.9050 15.31709488318897
STARLINK-1554,46055,53.1579,0.0001178,15.31711778,469.8980922713499,471.5116794196538,1 46055U 20055AE  26132.53197203  .00009329  00000+0  31189-3 0  9993,2 46055  53.1579 177.1605 0001178  97.4174 262.6962 15.31711778318857
STARLINK-1564,46058,53.1597,0.0001345,15.30198173,474.2987479303847,476.1423011044799,1 46058U 20055AH  26132.82206786  .00001082  00000+0  48648-4 0  9992,2 46058  53.1597 176.4772 0001345  83.3266 276.7888 15.30198173318882
STARLINK-1570,46059,53.1597,0.0001148,15.31701449,469.94942525226725,471.52192641863803,1 46059U 20055AJ  26132.82090353  .00000977  00000+0  43247-4 0  9996,2 46059  53.1597 175.6972 0001148  90.6211 269.4922 15.31701449318850
STARLINK-1572,46060,53.1587,0.0001067,15.30201986,474.4778875546217,475.94039162080935,1 46060U 20055AK  26132.41117318  .00000759  00000+0  37754-4 0  9998,2 46060  53.1587 178.1360 0001067  86.6533 273.4590 15.30201986318791
STARLINK-1573,46061,53.1577,0.0001204,15.31704423,469.9022073217411,471.55141372731487,1 46061U 20055AL  26132.93741814  .00000532  00000+0  28920-4 0  9994,2 46061  53.1577 175.1231 0001204  87.8037 272.3102 15.31704423318916
STARLINK-1577,46063,53.1599,0.0001114,15.31700883,469.9743984458155,471.5003276539019,1 46063U 20055AN  26132.50862568  .00000727  00000+0  35177-4 0  9997,2 46063  53.1599 177.1141 0001114  78.6532 281.4595 15.31700883318847
STARLINK-1583,46064,53.1591,0.0001653,15.30191394,474.10790215987436,476.37362884915,1 46064U 20055AP  26132.83252167 -.00000383  00000+0 -78618-6 0  9991,2 46064  53.1591 175.9263 0001653  81.5923 278.5265 15.30191394318881
STARLINK-1536,46070,53.1602,0.0001211,15.31710218,469.88014075315914,471.5389313841961,1 46070U 20055AV  26132.78496818 -.00000185  00000+0  57877-5 0  9997,2 46070  53.1602 163.7135 0001211  72.5509 287.5625 15.31710218319057
STARLINK-1542,46073,53.1499,0.00012,15.29451041,476.6295677972839,478.2749092145241,1 46073U 20055AY  26132.48173534  .00031643  00000+0  11010-2 0  9992,2 46073  53.1499 168.0758 0001200  65.8083 294.3043 15.29451041318954
STARLINK-1549,46074,53.0486,0.0003561,15.27516795,480.79502530731224,485.6816968394696,1 46074U 20055AZ  26132.77618872  .00026645  00000+0  98594-3 0  9993,2 46074  53.0486 163.5621 0003561  27.3611 332.7575 15.27516795319034
STARLINK-1551,46075,53.16,0.0001181,15.30193756,474.42432986003314,476.0430960224294,1 46075U 20055BA  26132.81299873  .00001041  00000+0  47282-4 0  9997,2 46075  53.1600 163.2154 0001181  92.4130 267.7006 15.30193756319057
STARLINK-1552,46076,53.1591,0.0001144,15.31686117,469.9978637761451,471.56489630149736,1 46076U 20055BB  26133.00003472  .00047967  00000+0  15482-2 0  9990,2 46076  53.1591 162.2308 0001144  90.3398 143.3407 15.31686117  5773
STARLINK-1559,46077,53.0232,0.0003121,15.35873048,456.1948698661745,460.46219165047387,1 46077U 20055BC  26132.71838526  .00027404  00000+0  78165-3 0  9996,2 46077  53.0232 134.3993 0003121  17.0964 343.0142 15.35873048319405
STARLINK-1566,46079,53.1609,0.0001196,15.31709905,469.8913469378722,471.5295912524798,1 46079U 20055BE  26132.37507384  .00001163  00000+0  49212-4 0  9991,2 46079  53.1609 164.9945 0001196  83.2059 276.9079 15.31709905318994
STARLINK-1568,46080,53.0583,0.0004711,15.51832135,408.1783435423922,414.57542352345536,1 46080U 20055BF  26132.16978191  .00029800  00000+0  49542-3 0  9991,2 46080  53.0583  88.8261 0004711  17.5823 342.5349 15.51832135320038
STARLINK-1578,46082,53.1598,0.0001509,15.31710305,469.6757858259407,471.7427676322568,1 46082U 20055BH  26132.50996220  .00000509  00000+0  28165-4 0  9998,2 46082  53.1598 164.8844 0001509  62.3177 297.7977 15.31710305319006
STARLINK-1579,46083,53.1609,0.0001205,15.31705499,469.8983153391673,471.54889074449966,1 46083U 20055BJ  26132.49625890  .00000774  00000+0  36701-4 0  9998,2 46083  53.1609 164.4822 0001205  78.6379 281.4758 15.31705499319004
STARLINK-1622,46128,53.0191,0.0004342,15.76908927,336.2879187370627,342.1212581724767,1 46128U 20057M   26132.78625853  .00093770  00000+0  56577-3 0  9991,2 46128  53.0191 266.9155 0004342 342.1389  17.9477 15.76908927317436
STARLINK-1623,46129,53.0448,0.0001425,15.69572701,359.15947466657235,361.07987781930115,1 46129U 20057N   26132.74040161  .00068255  00000+0  56675-3 0  9990,2 46129  53.0448 303.6612 0001425 291.6727  68.4137 15.69572701316928
STARLINK-1624,46130,53.0302,0.0010573,15.98672262,271.06396179192143,285.139243941544,1 46130U 20057P   26133.00003472  .00386542  73482-4  79487-3 0  9993,2 46130  53.0302 269.4813 0010573 300.1433 167.8253 15.98672262  6019
STARLINK-1596,46141,53.0374,0.0003576,15.5523792,399.03672917749554,403.88549774824423,1 46141U 20057AA  26132.71030903  .00066751  00000+0  96815-3 0  9993,2 46141  53.0374 283.5113 0003576 295.4098  64.6541 15.55237920317209
STARLINK-1597,46142,53.0445,0.0001934,15.69274475,359.6700005523571,362.276688433607,1 46142U 20057AB  26132.83959682  .00064949  00000+0  54641-3 0  9999,2 46142  53.0445 342.8619 0001934  70.4566 289.6659 15.69274475316373
STARLINK-1606,46144,53.038,0.0003941,15.80067981,327.60443879164177,332.8919880168469,1 46144U 20057AD  26133.00003472  .00090044  00000+0  47184-3 0  9997,2 46144  53.0380 297.5954 0003941 257.0625 245.3292 15.80067981  5899
STARLINK-1608,46146,53.1609,0.0001502,15.33686941,463.7956102587632,465.8512355698058,1 46146U 20057AF  26132.93312177  .00033529  00000+0  10218-2 0  9997,2 46146  53.1609  10.4047 0001502 187.9835 172.1144 15.33686941316020
STARLINK-1667,46155,53.0157,0.0006079,15.79808158,326.90524805213863,335.0621970266029,1 46155U 20057AQ  26133.00003472  .00047566  00000+0  25502-3 0  9990,2 46155  53.0157 265.8301 0006079 336.7845 158.5039 15.79808158  6006
STARLINK-1545,46156,53.0417,0.0004199,15.75313439,340.91688631577836,346.56191811836015,1 46156U 20057AR  26131.87836387  .00097912  00000+0  63315-3 0  9997,2 46156  53.0417 306.6302 0004199 214.6401 145.4345 15.75313439318059
